[{"OBJECT_NAME":"WSF-M","OBJECT_ID":"2024-070A","EPOCH":"2026-03-09T22:09:23.192640","MEAN_MOTION":14.20717963,"ECCENTRICITY":0.00037513,"INCLINATION":98.7203,"RA_OF_ASC_NODE":78.2024,"ARG_OF_PERICENTER":243.7691,"MEAN_ANOMALY":116.31,"EPHEMERIS_TYPE":0,"CLASSIFICATION_TYPE":"U","NORAD_CAT_ID":59481,"ELEMENT_SET_NO":999,"REV_AT_EPOCH":9900,"BSTAR":5.7491191e-5,"MEAN_MOTION_DOT":8.0e-7,"MEAN_MOTION_DDOT":0},{"OBJECT_NAME":"SL-16 DEB","OBJECT_ID":"1992-093LK","EPOCH":"2026-03-01T07:18:56.931840","MEAN_MOTION":14.2590511,"ECCENTRICITY":0.00564318,"INCLINATION":70.9193,"RA_OF_ASC_NODE":41.4516,"ARG_OF_PERICENTER":20.5616,"MEAN_ANOMALY":339.7765,"EPHEMERIS_TYPE":0,"CLASSIFICATION_TYPE":"U","NORAD_CAT_ID":39857,"ELEMENT_SET_NO":999,"REV_AT_EPOCH":60767,"BSTAR":0.0010683692,"MEAN_MOTION_DOT":2.54e-5,"MEAN_MOTION_DDOT":0}]
